{
  "type": "FeatureCollection",
  "features": [
    {
      "type": "Feature",
      "properties": {
        "norad_id": 34340,
        "name": "COSMOS 2251 DEB",
        "group": "cosmos-2251-debris",
        "lat": -61.92226917799855,
        "lon": 147.6829619735851,
        "alt_km": 1159.5042647738665,
        "timestamp": "2025-12-20T07:33:51.207076+00:00",
        "meta_object_name": "COSMOS 2251 DEB",
        "meta_object_id": "1993-036PN",
        "meta_epoch": "2025-12-19T21:56:06.888768",
        "meta_mean_motion": 13.79598554,
        "meta_eccentricity": 0.02835646,
        "meta_inclination": 74.0788,
        "meta_ra_of_asc_node": 296.0043,
        "meta_arg_of_pericenter": 42.1047,
        "meta_mean_anomaly": 13.9705,
        "meta_ephemeris_type": 0,
        "meta_classification_type": "U",
        "meta_norad_cat_id": 34340,
        "meta_element_set_no": 999,
        "meta_rev_at_epoch": 84367,
        "meta_bstar": 0.0012086416,
        "meta_mean_motion_dot": 1.664e-05,
        "meta_mean_motion_ddot": 0,
        "tle_line1": "1 34340U 93036PN  25353.91396862  .00001664  00000+0  12086-2 0  9992",
        "tle_line2": "2 34340  74.0788 296.0043 0283564  42.1047  13.9705 13.79598554843679"
      },
      "geometry": {
        "type": "Point",
        "coordinates": [
          147.6829619735851,
          -61.92226917799855
        ]
      }
    },
    {
      "type": "Feature",
      "properties": {
        "norad_id": 34343,
        "name": "COSMOS 2251 DEB",
        "group": "cosmos-2251-debris",
        "lat": -65.13392371307663,
        "lon": -66.94535776969941,
        "alt_km": 671.2459683657971,
        "timestamp": "2025-12-20T07:33:51.207087+00:00",
        "meta_object_name": "COSMOS 2251 DEB",
        "meta_object_id": "1993-036PR",
        "meta_epoch": "2025-12-19T16:24:38.901312",
        "meta_mean_motion": 14.69539596,
        "meta_eccentricity": 0.00239837,
        "meta_inclination": 74.0206,
        "meta_ra_of_asc_node": 76.0885,
        "meta_arg_of_pericenter": 348.4913,
        "meta_mean_anomaly": 163.535,
        "meta_ephemeris_type": 0,
        "meta_classification_type": "U",
        "meta_norad_cat_id": 34343,
        "meta_element_set_no": 999,
        "meta_rev_at_epoch": 88832,
        "meta_bstar": 0.00082048126,
        "meta_mean_motion_dot": 4.862e-05,
        "meta_mean_motion_ddot": 0,
        "tle_line1": "1 34343U 93036PR  25353.68378358  .00004862  00000+0  82048-3 0  9998",
        "tle_line2": "2 34343  74.0206  76.0885 0023983 348.4913 163.5350 14.69539596888328"
      },
      "geometry": {
        "type": "Point",
        "coordinates": [
          -66.94535776969941,
          -65.13392371307663
        ]
      }
    },
    {
      "type": "Feature",
      "properties": {
        "norad_id": 34344,
        "name": "COSMOS 2251 DEB",
        "group": "cosmos-2251-debris",
        "lat": -11.707960096338534,
        "lon": 93.41225996348199,
        "alt_km": 798.5066909778789,
        "timestamp": "2025-12-20T07:33:51.207097+00:00",
        "meta_object_name": "COSMOS 2251 DEB",
        "meta_object_id": "1993-036PS",
        "meta_epoch": "2025-12-18T17:13:37.907904",
        "meta_mean_motion": 14.16454578,
        "meta_eccentricity": 0.01562401,
        "meta_inclination": 73.9796,
        "meta_ra_of_asc_node": 99.676,
        "meta_arg_of_pericenter": 282.6089,
        "meta_mean_anomaly": 201.4311,
        "meta_ephemeris_type": 0,
        "meta_classification_type": "U",
        "meta_norad_cat_id": 34344,
        "meta_element_set_no": 999,
        "meta_rev_at_epoch": 86181,
        "meta_bstar": 0.0015826322,
        "meta_mean_motion_dot": 3.521e-05,
        "meta_mean_motion_ddot": 0,
        "tle_line1": "1 34344U 93036PS  25352.71779986  .00003521  00000+0  15826-2 0  9994",
        "tle_line2": "2 34344  73.9796  99.6760 0156240 282.6089 201.4311 14.16454578861812"
      },
      "geometry": {
        "type": "Point",
        "coordinates": [
          93.41225996348199,
          -11.707960096338534
        ]
      }
    },
    {
      "type": "Feature",
      "properties": {
        "norad_id": 34346,
        "name": "COSMOS 2251 DEB",
        "group": "cosmos-2251-debris",
        "lat": 0.35131687700478614,
        "lon": -60.797740538687215,
        "alt_km": 959.8856271982877,
        "timestamp": "2025-12-20T07:33:51.207107+00:00",
        "meta_object_name": "COSMOS 2251 DEB",
        "meta_object_id": "1993-036PU",
        "meta_epoch": "2025-12-19T21:32:24.627264",
        "meta_mean_motion": 13.99713542,
        "meta_eccentricity": 0.02061902,
        "meta_inclination": 73.9946,
        "meta_ra_of_asc_node": 299.8259,
        "meta_arg_of_pericenter": 117.0243,
        "meta_mean_anomaly": 301.7924,
        "meta_ephemeris_type": 0,
        "meta_classification_type": "U",
        "meta_norad_cat_id": 34346,
        "meta_element_set_no": 999,
        "meta_rev_at_epoch": 85510,
        "meta_bstar": 0.00074201018,
        "meta_mean_motion_dot": 1.282e-05,
        "meta_mean_motion_ddot": 0,
        "tle_line1": "1 34346U 93036PU  25353.89750726  .00001282  00000+0  74201-3 0  9992",
        "tle_line2": "2 34346  73.9946 299.8259 0206190 117.0243 301.7924 13.99713542855109"
      },
      "geometry": {
        "type": "Point",
        "coordinates": [
          -60.797740538687215,
          0.35131687700478614
        ]
      }
    },
    {
      "type": "Feature",
      "properties": {
        "norad_id": 34383,
        "name": "COSMOS 2251 DEB",
        "group": "cosmos-2251-debris",
        "lat": -50.064385279955296,
        "lon": -97.94695075067371,
        "alt_km": 544.2402902267477,
        "timestamp": "2025-12-20T07:33:51.207117+00:00",
        "meta_object_name": "COSMOS 2251 DEB",
        "meta_object_id": "1993-036PY",
        "meta_epoch": "2025-12-19T20:54:49.716864",
        "meta_mean_motion": 15.09588199,
        "meta_eccentricity": 0.00029763,
        "meta_inclination": 74.0215,
        "meta_ra_of_asc_node": 282.9836,
        "meta_arg_of_pericenter": 46.5992,
        "meta_mean_anomaly": 9.9621,
        "meta_ephemeris_type": 0,
        "meta_classification_type": "U",
        "meta_norad_cat_id": 34383,
        "meta_element_set_no": 999,
        "meta_rev_at_epoch": 89221,
        "meta_bstar": 0.0018768272,
        "meta_mean_motion_dot": 0.00030251,
        "meta_mean_motion_ddot": 0,
        "tle_line1": "1 34383U 93036PY  25353.87140876  .00030251  00000+0  18768-2 0  9993",
        "tle_line2": "2 34383  74.0215 282.9836 0002976  46.5992   9.9621 15.09588199892213"
      },
      "geometry": {
        "type": "Point",
        "coordinates": [
          -97.94695075067371,
          -50.064385279955296
        ]
      }
    },
    {
      "type": "Feature",
      "properties": {
        "norad_id": 34387,
        "name": "COSMOS 2251 DEB",
        "group": "cosmos-2251-debris",
        "lat": -70.45734180498931,
        "lon": 71.55019322065293,
        "alt_km": 729.9785530487079,
        "timestamp": "2025-12-20T07:33:51.207188+00:00",
        "meta_object_name": "COSMOS 2251 DEB",
        "meta_object_id": "1993-036QC",
        "meta_epoch": "2025-12-19T20:28:16.872384",
        "meta_mean_motion": 14.43834831,
        "meta_eccentricity": 0.0038903,
        "meta_inclination": 74.0389,
        "meta_ra_of_asc_node": 198.6743,
        "meta_arg_of_pericenter": 294.2913,
        "meta_mean_anomaly": 83.0565,
        "meta_ephemeris_type": 0,
        "meta_classification_type": "U",
        "meta_norad_cat_id": 34387,
        "meta_element_set_no": 999,
        "meta_rev_at_epoch": 88284,
        "meta_bstar": 0.000209556,
        "meta_mean_motion_dot": 6.93e-06,
        "meta_mean_motion_ddot": 0,
        "tle_line1": "1 34387U 93036QC  25353.85297306  .00000693  00000+0  20956-3 0  9996",
        "tle_line2": "2 34387  74.0389 198.6743 0038903 294.2913  83.0565 14.43834831882845"
      },
      "geometry": {
        "type": "Point",
        "coordinates": [
          71.55019322065293,
          -70.45734180498931
        ]
      }
    },
    {
      "type": "Feature",
      "properties": {
        "norad_id": 34388,
        "name": "COSMOS 2251 DEB",
        "group": "cosmos-2251-debris",
        "lat": 31.319872872215782,
        "lon": -141.07329206937703,
        "alt_km": 732.6094339546562,
        "timestamp": "2025-12-20T07:33:51.207200+00:00",
        "meta_object_name": "COSMOS 2251 DEB",
        "meta_object_id": "1993-036QD",
        "meta_epoch": "2025-12-19T14:59:23.455392",
        "meta_mean_motion": 14.49396358,
        "meta_eccentricity": 0.0013828,
        "meta_inclination": 74.0381,
        "meta_ra_of_asc_node": 210.192,
        "meta_arg_of_pericenter": 258.0327,
        "meta_mean_anomaly": 132.719,
        "meta_ephemeris_type": 0,
        "meta_classification_type": "U",
        "meta_norad_cat_id": 34388,
        "meta_element_set_no": 999,
        "meta_rev_at_epoch": 88255,
        "meta_bstar": 0.00043519,
        "meta_mean_motion_dot": 1.639e-05,
        "meta_mean_motion_ddot": 0,
        "tle_line1": "1 34388U 93036QD  25353.62457703  .00001639  00000+0  43519-3 0  9992",
        "tle_line2": "2 34388  74.0381 210.1920 0013828 258.0327 132.7190 14.49396358882558"
      },
      "geometry": {
        "type": "Point",
        "coordinates": [
          -141.07329206937703,
          31.319872872215782
        ]
      }
    }
  ]
}